[Satellite]
VERSION=1.1
NAME=RS12S
NICKNAME=RS12S
TLE1=1 53313U 98067TY  22342.02256295  .00162991  00000+0  12857-2 0  9991
TLE2=2 53313  51.6335 187.3703 0008248 187.8636 172.2234 15.70340572 21783
STATUS=0
